*******************************************************************************
 Revised: Mar 12, 2021           Callisto / (Jupiter)                       504

 SATELLITE PHYSICAL PROPERTIES:
  Mean radius (km)      = 2410.3 +- 1.5       Density (g cm^-3)= 1.834 +- 0.004
  GM (km^3/s^2)         = 7179.2834 +- 0.0097 Geometric Albedo = 0.17  +- 0.02

 SATELLITE ORBIT (at J2000.0 epoch, 2000-Jan-1.5):
  Semi-major axis, a (km)~ 1,883,000          Orbital period   ~ 16.691    d
  Eccentricity, e        ~ 0.00744            Rotational period= Synchronous
  Inclination, i  (deg)  ~ 0.200 
*******************************************************************************
 
 
*******************************************************************************
Ephemeris / WWW_USER Thu Apr  8 14:50:43 2021 Pasadena, USA      / Horizons
*******************************************************************************
Target body name: Callisto (504)                  {source: jup365_merged}
Center body name: Jupiter (599)                   {source: jup365_merged}
Center-site name: BODY CENTER
*******************************************************************************
Start time      : A.D. 1986-Apr-24 12:00:00.0000 TDB
Stop  time      : A.D. 2013-Sep-09 12:00:00.0000 TDB
Step-size       : 144000 minutes
*******************************************************************************
Center geodetic : 0.00000000,0.00000000,0.0000000 {W-lon(deg),Lat(deg),Alt(km)}
Center cylindric: 0.00000000,0.00000000,0.0000000 {W-lon(deg),Dxy(km),Dz(km)}
Center radii    : 71492.0 x 71492.0 x 66854.0 km  {Equator, meridian, pole}    
Output units    : AU-D
Output type     : LT+S CORRECTED cartesian states
Output format   : 2 (position and velocity)
Reference frame : ICRF
*******************************************************************************
JDTDB
   X     Y     Z
   VX    VY    VZ
*******************************************************************************
$$SOE
2453945.000000000 = A.D. 2006-Jul-28 12:00:00.0000 TDB 
 X = 1.230588356256828E-02 Y = 1.888596018670593E-03 Z = 1.073660308021652E-03
 VX=-8.201120789825105E-04 VY= 4.255017834556616E-03 VZ= 1.997957029474032E-03
2454045.000000000 = A.D. 2006-Nov-05 12:00:00.0000 TDB 
 X = 1.240004660861033E-02 Y = 1.316096740418366E-03 Z = 8.048129402352292E-04
 VX=-5.808305986003758E-04 VY= 4.286563126307976E-03 VZ= 2.016255372236681E-03
2454145.000000000 = A.D. 2007-Feb-13 12:00:00.0000 TDB 
 X = 1.246176868706626E-02 Y = 7.398161108206448E-04 Z = 5.337656140502130E-04
 VX=-3.384317922186934E-04 VY= 4.306280703894830E-03 VZ= 2.029044758036196E-03
2454245.000000000 = A.D. 2007-May-24 12:00:00.0000 TDB 
 X = 1.249123907224847E-02 Y = 1.620638818510495E-04 Z = 2.615889185120132E-04
 VX=-9.699978532788010E-05 VY= 4.315410515804372E-03 VZ= 2.036856530276896E-03
2454345.000000000 = A.D. 2007-Sep-01 12:00:00.0000 TDB 
 X = 1.248796690861985E-02 Y =-4.166074620146071E-04 Z =-1.149997153864243E-05
 VX= 1.464337380614206E-04 VY= 4.312836044283807E-03 VZ= 2.039209933082300E-03
2454445.000000000 = A.D. 2007-Dec-10 12:00:00.0000 TDB 
 X = 1.245205260990841E-02 Y =-9.937666174438030E-04 Z =-2.843807025798309E-04
 VX= 3.877228446257132E-04 VY= 4.298994764398590E-03 VZ= 2.036241543873480E-03
2454545.000000000 = A.D. 2008-Mar-19 12:00:00.0000 TDB 
 X = 1.238368748775350E-02 Y =-1.568960127049110E-03 Z =-5.568713376182414E-04
 VX= 6.300483321904805E-04 VY= 4.274105751641047E-03 VZ= 2.028101554972916E-03
2454645.000000000 = A.D. 2008-Jun-27 12:00:00.0000 TDB 
 X = 1.228290824345282E-02 Y =-2.139869001146894E-03 Z =-8.278970244270125E-04
 VX= 8.690921943009932E-04 VY= 4.237796338118930E-03 VZ= 2.014532443499514E-03
2454745.000000000 = A.D. 2008-Oct-05 12:00:00.0000 TDB 
 X = 1.215032039969436E-02 Y =-2.705893144749670E-03 Z =-1.097181369575883E-03
 VX= 1.107596969809608E-03 VY= 4.191278359608298E-03 VZ= 1.996145444135082E-03
2454845.000000000 = A.D. 2009-Jan-13 12:00:00.0000 TDB 
 X = 1.198570771765868E-02 Y =-3.264634095771522E-03 Z =-1.363591469713479E-03
 VX= 1.341501787645103E-03 VY= 4.132961491040208E-03 VZ= 1.972104088780773E-03
2454945.000000000 = A.D. 2009-Apr-23 12:00:00.0000 TDB 
 X = 1.179003807889622E-02 Y =-3.815342025835367E-03 Z =-1.626745787329292E-03
 VX= 1.573115013230458E-03 VY= 4.064878822792571E-03 VZ= 1.943397820426460E-03
2455045.000000000 = A.D. 2009-Aug-01 12:00:00.0000 TDB 
 X = 1.156301655878152E-02 Y =-4.356025799251615E-03 Z =-1.885677912244462E-03
 VX= 1.799455932462087E-03 VY= 3.984723445257536E-03 VZ= 1.908867188398780E-03
2455145.000000000 = A.D. 2009-Nov-09 12:00:00.0000 TDB 
 X = 1.130614332367339E-02 Y =-4.885973581183077E-03 Z =-2.139990881746891E-03
 VX= 2.022178768461883E-03 VY= 3.895499891291781E-03 VZ= 1.869959987932812E-03
2455245.000000000 = A.D. 2010-Feb-17 12:00:00.0000 TDB 
 X = 1.101926283890530E-02 Y =-5.403363970441283E-03 Z =-2.388779118068379E-03
 VX= 2.239035061594359E-03 VY= 3.794609696067505E-03 VZ= 1.825402651625419E-03
2455345.000000000 = A.D. 2010-May-28 12:00:00.0000 TDB 
 X = 1.070426577980261E-02 Y =-5.906917977152741E-03 Z =-2.631363030989906E-03
 VX= 2.450339976195429E-03 VY= 3.685618354169700E-03 VZ= 1.776905378789680E-03
2455445.000000000 = A.D. 2010-Sep-05 12:00:00.0000 TDB 
 X = 1.036097895434704E-02 Y =-6.394980899259560E-03 Z =-2.866922483470834E-03
 VX= 2.654791466971479E-03 VY= 3.565445322273025E-03 VZ= 1.722992563321861E-03
2455545.000000000 = A.D. 2010-Dec-14 12:00:00.0000 TDB 
 X = 9.991245229588667E-03 Y =-6.866252635445358E-03 Z =-3.094789383032193E-03
 VX= 2.851785328936493E-03 VY= 3.437650105025920E-03 VZ= 1.665367083134719E-03
2455645.000000000 = A.D. 2011-Mar-24 12:00:00.0000 TDB 
 X = 9.594947519325501E-03 Y =-7.319723911537882E-03 Z =-3.314484625296615E-03
 VX= 3.041630228032919E-03 VY= 3.299154907574749E-03 VZ= 1.602584320684445E-03
2455745.000000000 = A.D. 2011-Jul-02 12:00:00.0000 TDB 
 X = 9.174211214918218E-03 Y =-7.753967699469522E-03 Z =-3.525317744570777E-03
 VX= 3.222775413458122E-03 VY= 3.153616642868986E-03 VZ= 1.536382621670923E-03
2455845.000000000 = A.D. 2011-Oct-10 12:00:00.0000 TDB 
 X = 8.729395553190382E-03 Y =-8.168195952343044E-03 Z =-3.726949959657142E-03
 VX= 3.396480974306729E-03 VY= 2.998660737337364E-03 VZ= 1.465664145451911E-03
2455945.000000000 = A.D. 2012-Jan-18 12:00:00.0000 TDB 
 X = 8.262607121440913E-03 Y =-8.560680814700352E-03 Z =-3.918579349038676E-03
 VX= 3.560007565524811E-03 VY= 2.837557044519200E-03 VZ= 1.391957915806119E-03
2456045.000000000 = A.D. 2012-Apr-27 12:00:00.0000 TDB 
 X = 7.774237602432523E-03 Y =-8.931064592106311E-03 Z =-4.100089250527828E-03
 VX= 3.715439722525014E-03 VY= 2.668313250316927E-03 VZ= 1.314347259685146E-03
2456145.000000000 = A.D. 2012-Aug-05 12:00:00.0000 TDB 
 X = 7.266013976825419E-03 Y =-9.277672981309040E-03 Z =-4.270711327895204E-03
 VX= 3.859337408090528E-03 VY= 2.493247232314141E-03 VZ= 1.233877156735917E-03
2456245.000000000 = A.D. 2012-Nov-13 12:00:00.0000 TDB 
 X = 6.738753080593862E-03 Y =-9.600528458129859E-03 Z =-4.430493429590465E-03
 VX= 3.994779751409056E-03 VY= 2.311127909238743E-03 VZ= 1.149994188880977E-03
2456345.000000000 = A.D. 2013-Feb-21 12:00:00.0000 TDB 
 X = 6.194240463836178E-03 Y =-9.898007973207104E-03 Z =-4.578667592224689E-03
 VX= 4.118036328784764E-03 VY= 2.123561706627347E-03 VZ= 1.063386576222358E-03
2456445.000000000 = A.D. 2013-Jun-01 12:00:00.0000 TDB 
 X = 5.633789627749775E-03 Y =-1.017037733651375E-02 Z =-4.715357643993560E-03
 VX= 4.232589158144941E-03 VY= 1.930631813953853E-03 VZ= 9.741315011721708E-04
2456545.000000000 = A.D. 2013-Sep-09 12:00:00.0000 TDB 
 X = 5.058873410726388E-03 Y =-1.041605773700703E-02 Z =-4.839785128060890E-03
 VX= 4.334377032265669E-03 VY= 1.732992567040228E-03 VZ= 8.824576569888087E-04
